STARLINK-30437          
1 58036U 23156J   26068.26676835 -.00000628  00000+0 -90727-5 0  9991
2 58036  53.1603  80.1618 0001127  92.6776 267.4354 15.30194159136205
TEVEL2-2                
1 63219U 25052K   26068.64848259  .00020339  00000+0  69428-3 0  9991
2 63219  97.3987 324.7700 0004693 105.7930 254.3828 15.30343745 54855
